STARLINK-31028          
1 58516U 23191J   26076.91670139  .00037037  00000+0  13494-2 0  9990
2 58516  43.0004  56.6207 0000895 248.2815 108.0289 15.27562264  5683
STARLINK-2657           
1 48655U 21044T   26076.26783998 -.00001125  00000+0 -25892-4 0  9992
2 48655  53.1601  78.7640 0001116  83.5599 276.5529 15.30181403264987
